{"fetched_at":"2026-07-20T18:29:00.674Z","source":"https://celestrak.org/NORAD/elements/gp.php?GROUP=spire&FORMAT=JSON","constellation":"spire","records":[{"OBJECT_NAME":"LEMUR-2-VALHALLA","OBJECT_ID":"2024-022B","EPOCH":"2026-07-20T03:28:48.441504","CLASSIFICATION_TYPE":"U","MEAN_MOTION":15.40578281,"ECCENTRICITY":0.00087005,"INCLINATION":97.4081,"RA_OF_ASC_NODE":51.5501,"ARG_OF_PERICENTER":7.0064,"MEAN_ANOMALY":353.1302,"EPHEMERIS_TYPE":0,"NORAD_CAT_ID":58900,"ELEMENT_SET_NO":999,"REV_AT_EPOCH":13734,"BSTAR":0.00021984998,"MEAN_MOTION_DOT":0.00008865,"MEAN_MOTION_DDOT":0},{"OBJECT_NAME":"LEMUR-2-CAEL","OBJECT_ID":"2024-022E","EPOCH":"2026-07-20T03:01:44.537952","CLASSIFICATION_TYPE":"U","MEAN_MOTION":15.41954913,"ECCENTRICITY":0.00066356,"INCLINATION":97.4057,"RA_OF_ASC_NODE":52.5269,"ARG_OF_PERICENTER":350.9129,"MEAN_ANOMALY":9.1997,"EPHEMERIS_TYPE":0,"NORAD_CAT_ID":58903,"ELEMENT_SET_NO":999,"REV_AT_EPOCH":13741,"BSTAR":0.00023614378,"MEAN_MOTION_DOT":0.00009971,"MEAN_MOTION_DDOT":0},{"OBJECT_NAME":"LEMUR-2-JOHNNYTRUONG","OBJECT_ID":"2024-043BA","EPOCH":"2026-07-19T22:57:17.115840","CLASSIFICATION_TYPE":"U","MEAN_MOTION":15.62815408,"ECCENTRICITY":0.00037799,"INCLINATION":97.5403,"RA_OF_ASC_NODE":354.7548,"ARG_OF_PERICENTER":80.2627,"MEAN_ANOMALY":279.9058,"EPHEMERIS_TYPE":0,"NORAD_CAT_ID":59146,"ELEMENT_SET_NO":999,"REV_AT_EPOCH":13315,"BSTAR":0.0003042203,"MEAN_MOTION_DOT":0.00027316,"MEAN_MOTION_DDOT":0},{"OBJECT_NAME":"LEMUR-2-TOMATOKECHUP","OBJECT_ID":"2024-149D","EPOCH":"2026-07-20T03:05:26.284416","CLASSIFICATION_TYPE":"U","MEAN_MOTION":15.36642534,"ECCENTRICITY":0.00034351,"INCLINATION":97.3786,"RA_OF_ASC_NODE":283.2728,"ARG_OF_PERICENTER":112.8454,"MEAN_ANOMALY":247.3153,"EPHEMERIS_TYPE":0,"NORAD_CAT_ID":60471,"ELEMENT_SET_NO":999,"REV_AT_EPOCH":10722,"BSTAR":0.00017338804,"MEAN_MOTION_DOT":0.00006122,"MEAN_MOTION_DDOT":0},{"OBJECT_NAME":"LEMUR-2-STELLA","OBJECT_ID":"2024-149BT","EPOCH":"2026-07-20T02:26:56.237856","CLASSIFICATION_TYPE":"U","MEAN_MOTION":15.12429957,"ECCENTRICITY":0.0001313,"INCLINATION":97.6727,"RA_OF_ASC_NODE":283.715,"ARG_OF_PERICENTER":123.2741,"MEAN_ANOMALY":236.8616,"EPHEMERIS_TYPE":0,"NORAD_CAT_ID":60533,"ELEMENT_SET_NO":999,"REV_AT_EPOCH":10547,"BSTAR":0.00036400594,"MEAN_MOTION_DOT":0.00006259,"MEAN_MOTION_DDOT":0},{"OBJECT_NAME":"LEMUR-2-MARHISYAM","OBJECT_ID":"2024-149BW","EPOCH":"2026-07-20T00:41:19.122720","CLASSIFICATION_TYPE":"U","MEAN_MOTION":15.11830054,"ECCENTRICITY":0.00022493,"INCLINATION":97.6872,"RA_OF_ASC_NODE":284.1228,"ARG_OF_PERICENTER":62.5064,"MEAN_ANOMALY":297.6394,"EPHEMERIS_TYPE":0,"NORAD_CAT_ID":60536,"ELEMENT_SET_NO":999,"REV_AT_EPOCH":10544,"BSTAR":0.00030732993,"MEAN_MOTION_DOT":0.00005186,"MEAN_MOTION_DDOT":0},{"OBJECT_NAME":"LEMUR-2-AHMED-ASRAR","OBJECT_ID":"2024-149DN","EPOCH":"2026-07-19T18:22:47.783712","CLASSIFICATION_TYPE":"U","MEAN_MOTION":15.13363648,"ECCENTRICITY":0.00016238,"INCLINATION":97.6999,"RA_OF_ASC_NODE":286.0796,"ARG_OF_PERICENTER":184.9138,"MEAN_ANOMALY":175.2077,"EPHEMERIS_TYPE":0,"NORAD_CAT_ID":60576,"ELEMENT_SET_NO":999,"REV_AT_EPOCH":10549,"BSTAR":0.00032371882,"MEAN_MOTION_DOT":0.00005706,"MEAN_MOTION_DDOT":0},{"OBJECT_NAME":"LEMUR-2-LLOYD","OBJECT_ID":"2024-149DP","EPOCH":"2026-07-20T04:27:20.740608","CLASSIFICATION_TYPE":"U","MEAN_MOTION":15.09799638,"ECCENTRICITY":0.00042372,"INCLINATION":97.673,"RA_OF_ASC_NODE":282.3442,"ARG_OF_PERICENTER":58.5473,"MEAN_ANOMALY":301.617,"EPHEMERIS_TYPE":0,"NORAD_CAT_ID":60577,"ELEMENT_SET_NO":999,"REV_AT_EPOCH":10537,"BSTAR":0.00034655099,"MEAN_MOTION_DOT":0.00005536,"MEAN_MOTION_DDOT":0},{"OBJECT_NAME":"LEMUR-2-SQUIRRELCOMM","OBJECT_ID":"2024-149DQ","EPOCH":"2026-07-20T02:46:23.518272","CLASSIFICATION_TYPE":"U","MEAN_MOTION":15.07473407,"ECCENTRICITY":0.00040082,"INCLINATION":97.6698,"RA_OF_ASC_NODE":281.9289,"ARG_OF_PERICENTER":303.1916,"MEAN_ANOMALY":56.8926,"EPHEMERIS_TYPE":0,"NORAD_CAT_ID":60578,"ELEMENT_SET_NO":999,"REV_AT_EPOCH":10536,"BSTAR":0.00022599456,"MEAN_MOTION_DOT":0.00003364,"MEAN_MOTION_DDOT":0},{"OBJECT_NAME":"LEMUR-2-SIERRINI","OBJECT_ID":"2024-149DR","EPOCH":"2026-07-19T19:02:49.816896","CLASSIFICATION_TYPE":"U","MEAN_MOTION":15.11564081,"ECCENTRICITY":0.00061003,"INCLINATION":97.6829,"RA_OF_ASC_NODE":283.543,"ARG_OF_PERICENTER":79.2614,"MEAN_ANOMALY":280.9302,"EPHEMERIS_TYPE":0,"NORAD_CAT_ID":60579,"ELEMENT_SET_NO":999,"REV_AT_EPOCH":10538,"BSTAR":0.00034802522,"MEAN_MOTION_DOT":0.0000584,"MEAN_MOTION_DDOT":0},{"OBJECT_NAME":"LEMUR-2-WILSON","OBJECT_ID":"2025-009CP","EPOCH":"2026-07-20T03:41:30.171552","CLASSIFICATION_TYPE":"U","MEAN_MOTION":14.95286988,"ECCENTRICITY":0.00016525,"INCLINATION":97.7016,"RA_OF_ASC_NODE":279.0405,"ARG_OF_PERICENTER":294.9075,"MEAN_ANOMALY":65.1974,"EPHEMERIS_TYPE":0,"NORAD_CAT_ID":62694,"ELEMENT_SET_NO":999,"REV_AT_EPOCH":8228,"BSTAR":0.00012278001,"MEAN_MOTION_DOT":0.00001295,"MEAN_MOTION_DDOT":0},{"OBJECT_NAME":"LEMUR-2-STAR-FOX","OBJECT_ID":"2025-009CR","EPOCH":"2026-07-20T01:17:35.551680","CLASSIFICATION_TYPE":"U","MEAN_MOTION":15.02876982,"ECCENTRICITY":0.00016575,"INCLINATION":97.6899,"RA_OF_ASC_NODE":282.4263,"ARG_OF_PERICENTER":22.9564,"MEAN_ANOMALY":337.1735,"EPHEMERIS_TYPE":0,"NORAD_CAT_ID":62696,"ELEMENT_SET_NO":999,"REV_AT_EPOCH":8249,"BSTAR":0.00030735874,"MEAN_MOTION_DOT":0.00004061,"MEAN_MOTION_DDOT":0},{"OBJECT_NAME":"LEMUR-2-ARIANNA","OBJECT_ID":"2025-009CU","EPOCH":"2026-07-19T04:28:58.984320","CLASSIFICATION_TYPE":"U","MEAN_MOTION":15.02872906,"ECCENTRICITY":0.00020741,"INCLINATION":97.684,"RA_OF_ASC_NODE":281.3147,"ARG_OF_PERICENTER":35.4388,"MEAN_ANOMALY":324.6975,"EPHEMERIS_TYPE":0,"NORAD_CAT_ID":62699,"ELEMENT_SET_NO":999,"REV_AT_EPOCH":8236,"BSTAR":0.00029063805,"MEAN_MOTION_DOT":0.00003837,"MEAN_MOTION_DDOT":0},{"OBJECT_NAME":"LEMUR-2-ALISIA","OBJECT_ID":"2025-009DB","EPOCH":"2026-07-20T03:45:44.508960","CLASSIFICATION_TYPE":"U","MEAN_MOTION":15.03215642,"ECCENTRICITY":0.00048544,"INCLINATION":97.696,"RA_OF_ASC_NODE":283.1117,"ARG_OF_PERICENTER":115.7667,"MEAN_ANOMALY":244.4059,"EPHEMERIS_TYPE":0,"NORAD_CAT_ID":62706,"ELEMENT_SET_NO":999,"REV_AT_EPOCH":10511,"BSTAR":0.000300277,"MEAN_MOTION_DOT":0.00004003,"MEAN_MOTION_DDOT":0},{"OBJECT_NAME":"LEMUR-2-ROUNDTRIPPER","OBJECT_ID":"2025-009DG","EPOCH":"2026-07-20T03:48:11.221344","CLASSIFICATION_TYPE":"U","MEAN_MOTION":15.04274415,"ECCENTRICITY":0.00044596,"INCLINATION":97.7241,"RA_OF_ASC_NODE":283.7997,"ARG_OF_PERICENTER":55.0162,"MEAN_ANOMALY":305.1482,"EPHEMERIS_TYPE":0,"NORAD_CAT_ID":62711,"ELEMENT_SET_NO":999,"REV_AT_EPOCH":8258,"BSTAR":0.00030453867,"MEAN_MOTION_DOT":0.00004177,"MEAN_MOTION_DDOT":0},{"OBJECT_NAME":"LEMUR-2-MYNAMEISJEFF","OBJECT_ID":"2025-009DH","EPOCH":"2026-07-19T18:11:19.525632","CLASSIFICATION_TYPE":"U","MEAN_MOTION":15.04261876,"ECCENTRICITY":0.00043695,"INCLINATION":97.7289,"RA_OF_ASC_NODE":283.8001,"ARG_OF_PERICENTER":88.5252,"MEAN_ANOMALY":271.6474,"EPHEMERIS_TYPE":0,"NORAD_CAT_ID":62712,"ELEMENT_SET_NO":999,"REV_AT_EPOCH":8252,"BSTAR":0.00028585817,"MEAN_MOTION_DOT":0.00003916,"MEAN_MOTION_DDOT":0}]}
